[
    {
        "CCSDS_OMM_VERS": "3.0",
        "COMMENT": "GENERATED VIA SPACE-TRACK.ORG API",
        "CREATION_DATE": "2024-10-21T17:49:28",
        "ORIGINATOR": "18 SPCS",
        "OBJECT_NAME": "SL-16 R/B",
        "OBJECT_ID": "1998-043G",
        "CENTER_NAME": "EARTH",
        "REF_FRAME": "TEME",
        "TIME_SYSTEM": "UTC",
        "MEAN_ELEMENT_THEORY": "SGP4",
        "EPOCH": "2024-10-21T07:08:05.279712",
        "MEAN_MOTION": "14.25841498",
        "ECCENTRICITY": "0.00106880",
        "INCLINATION": "98.7568",
        "RA_OF_ASC_NODE": "236.1220",
        "ARG_OF_PERICENTER": "42.9300",
        "MEAN_ANOMALY": "317.2712",
        "EPHEMERIS_TYPE": "0",
        "CLASSIFICATION_TYPE": "U",
        "NORAD_CAT_ID": "25400",
        "ELEMENT_SET_NO": "999",
        "REV_AT_EPOCH": "36710",
        "BSTAR": "0.00013939000000",
        "MEAN_MOTION_DOT": "0.00000287",
        "MEAN_MOTION_DDOT": "0.0000000000000",
        "SEMIMAJOR_AXIS": "7183.802",
        "PERIOD": "100.993",
        "APOAPSIS": "813.345",
        "PERIAPSIS": "797.989",
        "OBJECT_TYPE": "ROCKET BODY",
        "RCS_SIZE": "LARGE",
        "COUNTRY_CODE": "CIS",
        "LAUNCH_DATE": "1998-07-10",
        "SITE": "TTMTR",
        "DECAY_DATE": null,
        "FILE": "4530563",
        "GP_ID": "271183036",
        "TLE_LINE0": "0 SL-16 R/B",
        "TLE_LINE1": "1 25400U 98043G   24295.29728333  .00000287  00000-0  13939-3 0  9999",
        "TLE_LINE2": "2 25400  98.7568 236.1220 0010688  42.9300 317.2712 14.25841498367109"
    },
    {
        "CCSDS_OMM_VERS": "3.0",
        "COMMENT": "GENERATED VIA SPACE-TRACK.ORG API",
        "CREATION_DATE": "2024-10-22T04:17:00",
        "ORIGINATOR": "18 SPCS",
        "OBJECT_NAME": "SL-16 R/B",
        "OBJECT_ID": "1998-045B",
        "CENTER_NAME": "EARTH",
        "REF_FRAME": "TEME",
        "TIME_SYSTEM": "UTC",
        "MEAN_ELEMENT_THEORY": "SGP4",
        "EPOCH": "2024-10-21T19:11:19.333248",
        "MEAN_MOTION": "14.16062323",
        "ECCENTRICITY": "0.00053780",
        "INCLINATION": "71.0107",
        "RA_OF_ASC_NODE": "161.1572",
        "ARG_OF_PERICENTER": "66.1014",
        "MEAN_ANOMALY": "294.0672",
        "EPHEMERIS_TYPE": "0",
        "CLASSIFICATION_TYPE": "U",
        "NORAD_CAT_ID": "25407",
        "ELEMENT_SET_NO": "999",
        "REV_AT_EPOCH": "35576",
        "BSTAR": "0.00014324000000",
        "MEAN_MOTION_DOT": "0.00000235",
        "MEAN_MOTION_DDOT": "0.0000000000000",
        "SEMIMAJOR_AXIS": "7216.838",
        "PERIOD": "101.690",
        "APOAPSIS": "842.584",
        "PERIAPSIS": "834.821",
        "OBJECT_TYPE": "ROCKET BODY",
        "RCS_SIZE": "LARGE",
        "COUNTRY_CODE": "CIS",
        "LAUNCH_DATE": "1998-07-28",
        "SITE": "TTMTR",
        "DECAY_DATE": null,
        "FILE": "4530606",
        "GP_ID": "271212790",
        "TLE_LINE0": "0 SL-16 R/B",
        "TLE_LINE1": "1 25407U 98045B   24295.79952932  .00000235  00000-0  14324-3 0  9999",
        "TLE_LINE2": "2 25407  71.0107 161.1572 0005378  66.1014 294.0672 14.16062323355764"
    },
    {
        "CCSDS_OMM_VERS": "3.0",
        "COMMENT": "GENERATED VIA SPACE-TRACK.ORG API",
        "CREATION_DATE": "2024-10-22T06:46:17",
        "ORIGINATOR": "18 SPCS",
        "OBJECT_NAME": "SL-16 R/B",
        "OBJECT_ID": "1999-039B",
        "CENTER_NAME": "EARTH",
        "REF_FRAME": "TEME",
        "TIME_SYSTEM": "UTC",
        "MEAN_ELEMENT_THEORY": "SGP4",
        "EPOCH": "2024-10-22T02:29:56.952096",
        "MEAN_MOTION": "14.80574924",
        "ECCENTRICITY": "0.00164390",
        "INCLINATION": "98.0733",
        "RA_OF_ASC_NODE": "342.9494",
        "ARG_OF_PERICENTER": "89.1715",
        "MEAN_ANOMALY": "271.1380",
        "EPHEMERIS_TYPE": "0",
        "CLASSIFICATION_TYPE": "U",
        "NORAD_CAT_ID": "25861",
        "ELEMENT_SET_NO": "999",
        "REV_AT_EPOCH": "36244",
        "BSTAR": "0.00021553000000",
        "MEAN_MOTION_DOT": "0.00001602",
        "MEAN_MOTION_DDOT": "0.0000000000000",
        "SEMIMAJOR_AXIS": "7005.647",
        "PERIOD": "97.260",
        "APOAPSIS": "639.029",
        "PERIAPSIS": "615.995",
        "OBJECT_TYPE": "ROCKET BODY",
        "RCS_SIZE": "LARGE",
        "COUNTRY_CODE": "CIS",
        "LAUNCH_DATE": "1999-07-17",
        "SITE": "TTMTR",
        "DECAY_DATE": null,
        "FILE": "4530674",
        "GP_ID": "271237362",
        "TLE_LINE0": "0 SL-16 R/B",
        "TLE_LINE1": "1 25861U 99039B   24296.10413139  .00001602  00000-0  21553-3 0  9995",
        "TLE_LINE2": "2 25861  98.0733 342.9494 0016439  89.1715 271.1380 14.80574924362448"
    },
    {
        "CCSDS_OMM_VERS": "3.0",
        "COMMENT": "GENERATED VIA SPACE-TRACK.ORG API",
        "CREATION_DATE": "2024-10-22T04:17:00",
        "ORIGINATOR": "18 SPCS",
        "OBJECT_NAME": "SL-16 R/B",
        "OBJECT_ID": "2000-006B",
        "CENTER_NAME": "EARTH",
        "REF_FRAME": "TEME",
        "TIME_SYSTEM": "UTC",
        "MEAN_ELEMENT_THEORY": "SGP4",
        "EPOCH": "2024-10-21T19:49:36.025824",
        "MEAN_MOTION": "14.15694274",
        "ECCENTRICITY": "0.00184470",
        "INCLINATION": "71.0015",
        "RA_OF_ASC_NODE": "77.1976",
        "ARG_OF_PERICENTER": "233.9385",
        "MEAN_ANOMALY": "126.0029",
        "EPHEMERIS_TYPE": "0",
        "CLASSIFICATION_TYPE": "U",
        "NORAD_CAT_ID": "26070",
        "ELEMENT_SET_NO": "999",
        "REV_AT_EPOCH": "27724",
        "BSTAR": "-0.00002906700000",
        "MEAN_MOTION_DOT": "-0.00000105",
        "MEAN_MOTION_DDOT": "0.0000000000000",
        "SEMIMAJOR_AXIS": "7218.088",
        "PERIOD": "101.717",
        "APOAPSIS": "853.269",
        "PERIAPSIS": "826.638",
        "OBJECT_TYPE": "ROCKET BODY",
        "RCS_SIZE": "LARGE",
        "COUNTRY_CODE": "CIS",
        "LAUNCH_DATE": "2000-02-03",
        "SITE": "TTMTR",
        "DECAY_DATE": null,
        "FILE": "4530606",
        "GP_ID": "271212948",
        "TLE_LINE0": "0 SL-16 R/B",
        "TLE_LINE1": "1 26070U 00006B   24295.82611141 -.00000105  00000-0 -29067-4 0  9993",
        "TLE_LINE2": "2 26070  71.0015  77.1976 0018447 233.9385 126.0029 14.15694274277240"
    },
    {
        "CCSDS_OMM_VERS": "3.0",
        "COMMENT": "GENERATED VIA SPACE-TRACK.ORG API",
        "CREATION_DATE": "2024-10-22T04:17:00",
        "ORIGINATOR": "18 SPCS",
        "OBJECT_NAME": "METEOR 3M",
        "OBJECT_ID": "2001-056A",
        "CENTER_NAME": "EARTH",
        "REF_FRAME": "TEME",
        "TIME_SYSTEM": "UTC",
        "MEAN_ELEMENT_THEORY": "SGP4",
        "EPOCH": "2024-10-21T21:59:12.216768",
        "MEAN_MOTION": "13.68973226",
        "ECCENTRICITY": "0.00129920",
        "INCLINATION": "99.7915",
        "RA_OF_ASC_NODE": "100.9882",
        "ARG_OF_PERICENTER": "300.8688",
        "MEAN_ANOMALY": "216.1212",
        "EPHEMERIS_TYPE": "0",
        "CLASSIFICATION_TYPE": "U",
        "NORAD_CAT_ID": "27001",
        "ELEMENT_SET_NO": "999",
        "REV_AT_EPOCH": "14233",
        "BSTAR": "0.00010060000000",
        "MEAN_MOTION_DOT": "0.00000040",
        "MEAN_MOTION_DDOT": "0.0000000000000",
        "SEMIMAJOR_AXIS": "7381.397",
        "PERIOD": "105.188",
        "APOAPSIS": "1012.851",
        "PERIAPSIS": "993.672",
        "OBJECT_TYPE": "PAYLOAD",
        "RCS_SIZE": "LARGE",
        "COUNTRY_CODE": "CIS",
        "LAUNCH_DATE": "2001-12-10",
        "SITE": "TTMTR",
        "DECAY_DATE": null,
        "FILE": "4530606",
        "GP_ID": "271213664",
        "TLE_LINE0": "0 METEOR 3M",
        "TLE_LINE1": "1 27001U 01056A   24295.91611362  .00000040  00000-0  10060-3 0  9997",
        "TLE_LINE2": "2 27001  99.7915 100.9882 0012992 300.8688 216.1212 13.68973226142331"
    },
    {
        "CCSDS_OMM_VERS": "3.0",
        "COMMENT": "GENERATED VIA SPACE-TRACK.ORG API",
        "CREATION_DATE": "2024-10-22T04:17:00",
        "ORIGINATOR": "18 SPCS",
        "OBJECT_NAME": "SL-16 R/B",
        "OBJECT_ID": "2001-056F",
        "CENTER_NAME": "EARTH",
        "REF_FRAME": "TEME",
        "TIME_SYSTEM": "UTC",
        "MEAN_ELEMENT_THEORY": "SGP4",
        "EPOCH": "2024-10-21T21:22:49.155744",
        "MEAN_MOTION": "13.71048489",
        "ECCENTRICITY": "0.00143040",
        "INCLINATION": "99.7055",
        "RA_OF_ASC_NODE": "84.1491",
        "ARG_OF_PERICENTER": "199.1340",
        "MEAN_ANOMALY": "314.2676",
        "EPHEMERIS_TYPE": "0",
        "CLASSIFICATION_TYPE": "U",
        "NORAD_CAT_ID": "27006",
        "ELEMENT_SET_NO": "999",
        "REV_AT_EPOCH": "14415",
        "BSTAR": "0.00008076300000",
        "MEAN_MOTION_DOT": "0.00000026",
        "MEAN_MOTION_DDOT": "0.0000000000000",
        "SEMIMAJOR_AXIS": "7373.946",
        "PERIOD": "105.029",
        "APOAPSIS": "1006.359",
        "PERIAPSIS": "985.264",
        "OBJECT_TYPE": "ROCKET BODY",
        "RCS_SIZE": "LARGE",
        "COUNTRY_CODE": "CIS",
        "LAUNCH_DATE": "2001-12-10",
        "SITE": "TTMTR",
        "DECAY_DATE": null,
        "FILE": "4530606",
        "GP_ID": "271214165",
        "TLE_LINE0": "0 SL-16 R/B",
        "TLE_LINE1": "1 27006U 01056F   24295.89084671  .00000026  00000-0  80763-4 0  9998",
        "TLE_LINE2": "2 27006  99.7055  84.1491 0014304 199.1340 314.2676 13.71048489144157"
    }
]